0 IRIDIUM 921
1 24873U 97034E   23247.48101804  .00011426  00000-0  46173-3 0  9999
2 24873  86.3836  68.1572 0003513 257.0071 103.0782 15.24617751431315
0 IRIDIUM 26
1 24903U 97043A   23247.34467080  .00000536  00000-0  17808-3 0  9992
2 24903  86.3989  24.0696 0002360  92.8251 267.3216 14.35979935363169
0 IRIDIUM 22
1 24907U 97043E   23248.08706897  .00000502  00000-0  16986-3 0  9999
2 24907  86.3988  26.7677 0002107  93.3261 266.8176 14.34891868363364
0 DUMMY MASS 1
1 24925U 97048A   23247.80328385  .00000467  00000-0  50552-4 0  9993
2 24925  86.3295  76.2574 0004845 305.7035  54.3738 14.85805770408616
0 DUMMY MASS 2
1 24926U 97048B   23247.79368787  .00000460  00000-0  50033-4 0  9999
2 24926  86.3295  77.7564 0005929 318.2326  41.8444 14.85567877408403
0 IRIDIUM 29
1 24944U 97051A   23247.76246454  .00000443  00000-0  14777-3 0  9991
2 24944  86.3925  56.9116 0001978  96.1259 264.0163 14.35354230360015
0 IRIDIUM 33
1 24946U 97051C   23247.18185533  .00000335  00000-0  11291-3 0  9997
2 24946  86.3841  56.4359 0009548  54.9922 305.2169 14.34097358359272
0 IRIDIUM 28
1 24948U 97051E   23247.53627644  .00000472  00000-0  15496-3 0  9995
2 24948  86.3934  54.8954 0002475  85.7513 274.3967 14.36272665360272
